{
  "type": "FeatureCollection",
  "features": [
    {
      "type": "Feature",
      "properties": {
        "norad_id": 67025,
        "name": "STARLINK-36178",
        "group": "last-30-days",
        "lat": 34.71901181732351,
        "lon": -54.97756414697611,
        "alt_km": 326.8907395951819,
        "timestamp": "2025-12-24T05:51:18.328469+00:00",
        "meta_object_name": "STARLINK-36178",
        "meta_object_id": "2025-293Y",
        "meta_epoch": "2025-12-23T22:00:01.999584",
        "meta_mean_motion": 15.82047805,
        "meta_eccentricity": 0.00038974,
        "meta_inclination": 69.9923,
        "meta_ra_of_asc_node": 291.333,
        "meta_arg_of_pericenter": 265.4876,
        "meta_mean_anomaly": 69.2428,
        "meta_ephemeris_type": 0,
        "meta_classification_type": "U",
        "meta_norad_cat_id": 67025,
        "meta_element_set_no": 999,
        "meta_rev_at_epoch": 202,
        "meta_bstar": -0.0093828683,
        "meta_mean_motion_dot": -0.016708,
        "meta_mean_motion_ddot": 0,
        "tle_line1": "1 67025U 25293Y   25357.91668981 -.01670800  00000+0 -93829-2 0  9997",
        "tle_line2": "2 67025  69.9923 291.3330 0003897 265.4876  69.2428 15.82047805  2021"
      },
      "geometry": {
        "type": "Point",
        "coordinates": [
          -54.97756414697611,
          34.71901181732351
        ]
      }
    },
    {
      "type": "Feature",
      "properties": {
        "norad_id": 67026,
        "name": "STARLINK-36176",
        "group": "last-30-days",
        "lat": 39.22151505114774,
        "lon": -52.305960896632406,
        "alt_km": 326.4692137667471,
        "timestamp": "2025-12-24T05:51:18.328479+00:00",
        "meta_object_name": "STARLINK-36176",
        "meta_object_id": "2025-293Z",
        "meta_epoch": "2025-12-23T22:00:01.999584",
        "meta_mean_motion": 15.82009063,
        "meta_eccentricity": 0.00039061,
        "meta_inclination": 69.9921,
        "meta_ra_of_asc_node": 291.327,
        "meta_arg_of_pericenter": 264.8762,
        "meta_mean_anomaly": 74.8822,
        "meta_ephemeris_type": 0,
        "meta_classification_type": "U",
        "meta_norad_cat_id": 67026,
        "meta_element_set_no": 999,
        "meta_rev_at_epoch": 202,
        "meta_bstar": -0.0094279602,
        "meta_mean_motion_dot": -0.01675119,
        "meta_mean_motion_ddot": 0,
        "tle_line1": "1 67026U 25293Z   25357.91668981 -.01675119  00000+0 -94280-2 0  9998",
        "tle_line2": "2 67026  69.9921 291.3270 0003906 264.8762  74.8822 15.82009063  2025"
      },
      "geometry": {
        "type": "Point",
        "coordinates": [
          -52.305960896632406,
          39.22151505114774
        ]
      }
    },
    {
      "type": "Feature",
      "properties": {
        "norad_id": 67027,
        "name": "STARLINK-36171",
        "group": "last-30-days",
        "lat": 37.248182065044055,
        "lon": -53.52029235430979,
        "alt_km": 326.5125932453939,
        "timestamp": "2025-12-24T05:51:18.328489+00:00",
        "meta_object_name": "STARLINK-36171",
        "meta_object_id": "2025-293AA",
        "meta_epoch": "2025-12-23T22:00:01.999584",
        "meta_mean_motion": 15.82016407,
        "meta_eccentricity": 0.00037087,
        "meta_inclination": 69.9921,
        "meta_ra_of_asc_node": 291.3298,
        "meta_arg_of_pericenter": 267.415,
        "meta_mean_anomaly": 70.1431,
        "meta_ephemeris_type": 0,
        "meta_classification_type": "U",
        "meta_norad_cat_id": 67027,
        "meta_element_set_no": 999,
        "meta_rev_at_epoch": 202,
        "meta_bstar": -0.0094103797,
        "meta_mean_motion_dot": -0.01672684,
        "meta_mean_motion_ddot": 0,
        "tle_line1": "1 67027U 25293AA  25357.91668981 -.01672684  00000+0 -94104-2 0  9998",
        "tle_line2": "2 67027  69.9921 291.3298 0003708 267.4150  70.1431 15.82016407  2021"
      },
      "geometry": {
        "type": "Point",
        "coordinates": [
          -53.52029235430979,
          37.248182065044055
        ]
      }
    },
    {
      "type": "Feature",
      "properties": {
        "norad_id": 67028,
        "name": "STARLINK-36132",
        "group": "last-30-days",
        "lat": 43.69122617180039,
        "lon": -49.242550505531064,
        "alt_km": 325.91784965753504,
        "timestamp": "2025-12-24T05:51:18.328503+00:00",
        "meta_object_name": "STARLINK-36132",
        "meta_object_id": "2025-293AB",
        "meta_epoch": "2025-12-23T22:00:01.999584",
        "meta_mean_motion": 15.81966049,
        "meta_eccentricity": 0.00038992,
        "meta_inclination": 69.9923,
        "meta_ra_of_asc_node": 291.3212,
        "meta_arg_of_pericenter": 268.6958,
        "meta_mean_anomaly": 76.1313,
        "meta_ephemeris_type": 0,
        "meta_classification_type": "U",
        "meta_norad_cat_id": 67028,
        "meta_element_set_no": 999,
        "meta_rev_at_epoch": 202,
        "meta_bstar": -0.0094336472,
        "meta_mean_motion_dot": -0.01673051,
        "meta_mean_motion_ddot": 0,
        "tle_line1": "1 67028U 25293AB  25357.91668981 -.01673051  00000+0 -94336-2 0  9995",
        "tle_line2": "2 67028  69.9923 291.3212 0003899 268.6958  76.1313 15.81966049  2020"
      },
      "geometry": {
        "type": "Point",
        "coordinates": [
          -49.242550505531064,
          43.69122617180039
        ]
      }
    },
    {
      "type": "Feature",
      "properties": {
        "norad_id": 67029,
        "name": "STARLINK-36190",
        "group": "last-30-days",
        "lat": 41.272103695369395,
        "lon": -50.959614961104165,
        "alt_km": 326.25918651688426,
        "timestamp": "2025-12-24T05:51:18.328513+00:00",
        "meta_object_name": "STARLINK-36190",
        "meta_object_id": "2025-293AC",
        "meta_epoch": "2025-12-23T22:00:01.999584",
        "meta_mean_motion": 15.81993445,
        "meta_eccentricity": 0.00038776,
        "meta_inclination": 69.9924,
        "meta_ra_of_asc_node": 291.3247,
        "meta_arg_of_pericenter": 264.0718,
        "meta_mean_anomaly": 77.9965,
        "meta_ephemeris_type": 0,
        "meta_classification_type": "U",
        "meta_norad_cat_id": 67029,
        "meta_element_set_no": 999,
        "meta_rev_at_epoch": 202,
        "meta_bstar": -0.0094142058,
        "meta_mean_motion_dot": -0.01671902,
        "meta_mean_motion_ddot": 0,
        "tle_line1": "1 67029U 25293AC  25357.91668981 -.01671902  00000+0 -94142-2 0  9994",
        "tle_line2": "2 67029  69.9924 291.3247 0003877 264.0718  77.9965 15.81993445  2022"
      },
      "geometry": {
        "type": "Point",
        "coordinates": [
          -50.959614961104165,
          41.272103695369395
        ]
      }
    },
    {
      "type": "Feature",
      "properties": {
        "norad_id": 67030,
        "name": "STARLINK-36138",
        "group": "last-30-days",
        "lat": -19.31838103715813,
        "lon": 89.69293461235327,
        "alt_km": 344.7357905124072,
        "timestamp": "2025-12-24T05:51:18.328526+00:00",
        "meta_object_name": "STARLINK-36138",
        "meta_object_id": "2025-294A",
        "meta_epoch": "2025-12-23T22:00:01.999584",
        "meta_mean_motion": 15.767706,
        "meta_eccentricity": 0.00014293,
        "meta_inclination": 42.9996,
        "meta_ra_of_asc_node": 113.7807,
        "meta_arg_of_pericenter": 272.5717,
        "meta_mean_anomaly": 359.3043,
        "meta_ephemeris_type": 0,
        "meta_classification_type": "U",
        "meta_norad_cat_id": 67030,
        "meta_element_set_no": 999,
        "meta_rev_at_epoch": 190,
        "meta_bstar": -0.013403648,
        "meta_mean_motion_dot": -0.01929747,
        "meta_mean_motion_ddot": 0,
        "tle_line1": "1 67030U 25294A   25357.91668981 -.01929747  00000+0 -13404-1 0  9991",
        "tle_line2": "2 67030  42.9996 113.7807 0001429 272.5717 359.3043 15.76770600  1907"
      },
      "geometry": {
        "type": "Point",
        "coordinates": [
          89.69293461235327,
          -19.31838103715813
        ]
      }
    },
    {
      "type": "Feature",
      "properties": {
        "norad_id": 67031,
        "name": "STARLINK-36150",
        "group": "last-30-days",
        "lat": -18.179236789708753,
        "lon": 91.15235647800114,
        "alt_km": 344.5081875297901,
        "timestamp": "2025-12-24T05:51:18.328536+00:00",
        "meta_object_name": "STARLINK-36150",
        "meta_object_id": "2025-294B",
        "meta_epoch": "2025-12-23T22:00:01.999584",
        "meta_mean_motion": 15.76781678,
        "meta_eccentricity": 0.00014909,
        "meta_inclination": 42.9997,
        "meta_ra_of_asc_node": 113.776,
        "meta_arg_of_pericenter": 278.7521,
        "meta_mean_anomaly": 354.9104,
        "meta_ephemeris_type": 0,
        "meta_classification_type": "U",
        "meta_norad_cat_id": 67031,
        "meta_element_set_no": 999,
        "meta_rev_at_epoch": 210,
        "meta_bstar": -0.013454444,
        "meta_mean_motion_dot": -0.01936951,
        "meta_mean_motion_ddot": 0,
        "tle_line1": "1 67031U 25294B   25357.91668981 -.01936951  00000+0 -13454-1 0  9992",
        "tle_line2": "2 67031  42.9997 113.7760 0001490 278.7521 354.9104 15.76781678  2105"
      },
      "geometry": {
        "type": "Point",
        "coordinates": [
          91.15235647800114,
          -18.179236789708753
        ]
      }
    }
  ]
}